STARLINK-1514
1 16046C 20055V   21326.14986729  .00046532  00000-0  68295-3 0  3269
2 16046  53.0564 299.5904 0001680 177.8204 239.9185 15.54848339    15
